CCSDS_OMM_VERS = 2.0
CREATION_DATE  = 
ORIGINATOR     = 

OBJECT_NAME    = CENTISPACE-1 OBJECT E
OBJECT_ID      = 2026-060E
CENTER_NAME    = EARTH
REF_FRAME      = TEME
TIME_SYSTEM    = UTC
MEAN_ELEMENT_THEORY = SGP/SGP4

EPOCH          = 2026-03-28T11:08:19.790016
MEAN_MOTION    = 14.75188652
ECCENTRICITY   = .00130059
INCLINATION    = 54.9735
RA_OF_ASC_NODE = 5.0203
ARG_OF_PERICENTER = 313.7619
MEAN_ANOMALY   = 46.2303

EPHEMERIS_TYPE = 0
CLASSIFICATION_TYPE = U
NORAD_CAT_ID   = 68354
ELEMENT_SET_NO = 999
REV_AT_EPOCH   = 86
BSTAR          = .36840309E-4
MEAN_MOTION_DOT = .41E-6
MEAN_MOTION_DDOT = 0

CCSDS_OMM_VERS = 2.0
CREATION_DATE  = 
ORIGINATOR     = 

OBJECT_NAME    = CENTISPACE-1 OBJECT F
OBJECT_ID      = 2026-060F
CENTER_NAME    = EARTH
REF_FRAME      = TEME
TIME_SYSTEM    = UTC
MEAN_ELEMENT_THEORY = SGP/SGP4

EPOCH          = 2026-03-28T11:08:08.888928
MEAN_MOTION    = 14.75225446
ECCENTRICITY   = .00135711
INCLINATION    = 54.9797
RA_OF_ASC_NODE = 5.0180
ARG_OF_PERICENTER = 313.4363
MEAN_ANOMALY   = 46.5507

EPHEMERIS_TYPE = 0
CLASSIFICATION_TYPE = U
NORAD_CAT_ID   = 68355
ELEMENT_SET_NO = 999
REV_AT_EPOCH   = 86
BSTAR          = .36834989E-4
MEAN_MOTION_DOT = .41E-6
MEAN_MOTION_DDOT = 0

CCSDS_OMM_VERS = 2.0
CREATION_DATE  = 
ORIGINATOR     = 

OBJECT_NAME    = CENTISPACE-1 OBJECT G
OBJECT_ID      = 2026-060G
CENTER_NAME    = EARTH
REF_FRAME      = TEME
TIME_SYSTEM    = UTC
MEAN_ELEMENT_THEORY = SGP/SGP4

EPOCH          = 2026-03-28T04:37:24.920256
MEAN_MOTION    = 14.75315168
ECCENTRICITY   = .00137692
INCLINATION    = 54.9886
RA_OF_ASC_NODE = 6.1275
ARG_OF_PERICENTER = 313.4466
MEAN_ANOMALY   = 46.5387

EPHEMERIS_TYPE = 0
CLASSIFICATION_TYPE = U
NORAD_CAT_ID   = 68356
ELEMENT_SET_NO = 999
REV_AT_EPOCH   = 82
BSTAR          = .35003989E-4
MEAN_MOTION_DOT = .29E-6
MEAN_MOTION_DDOT = 0

CCSDS_OMM_VERS = 2.0
CREATION_DATE  = 
ORIGINATOR     = 

OBJECT_NAME    = CENTISPACE-1 OBJECT H
OBJECT_ID      = 2026-060H
CENTER_NAME    = EARTH
REF_FRAME      = TEME
TIME_SYSTEM    = UTC
MEAN_ELEMENT_THEORY = SGP/SGP4

EPOCH          = 2026-03-25T14:49:38.254368
MEAN_MOTION    = 14.75425125
ECCENTRICITY   = .00144709
INCLINATION    = 54.9848
RA_OF_ASC_NODE = 16.6351
ARG_OF_PERICENTER = 304.4277
MEAN_ANOMALY   = 55.5354

EPHEMERIS_TYPE = 0
CLASSIFICATION_TYPE = U
NORAD_CAT_ID   = 68357
ELEMENT_SET_NO = 999
REV_AT_EPOCH   = 44
BSTAR          = .33491501E-4
MEAN_MOTION_DOT = .19E-6
MEAN_MOTION_DDOT = 0

CCSDS_OMM_VERS = 2.0
CREATION_DATE  = 
ORIGINATOR     = 

OBJECT_NAME    = CENTISPACE-1 OBJECT J
OBJECT_ID      = 2026-060J
CENTER_NAME    = EARTH
REF_FRAME      = TEME
TIME_SYSTEM    = UTC
MEAN_ELEMENT_THEORY = SGP/SGP4

EPOCH          = 2026-03-25T14:49:37.060320
MEAN_MOTION    = 14.75435012
ECCENTRICITY   = .0013871
INCLINATION    = 54.9877
RA_OF_ASC_NODE = 16.6351
ARG_OF_PERICENTER = 306.1411
MEAN_ANOMALY   = 53.8304

EPHEMERIS_TYPE = 0
CLASSIFICATION_TYPE = U
NORAD_CAT_ID   = 68358
ELEMENT_SET_NO = 999
REV_AT_EPOCH   = 44
BSTAR          = .33263E-4
MEAN_MOTION_DOT = .17E-6
MEAN_MOTION_DDOT = 0

CCSDS_OMM_VERS = 2.0
CREATION_DATE  = 
ORIGINATOR     = 

OBJECT_NAME    = CENTISPACE-1 OBJECT K
OBJECT_ID      = 2026-060K
CENTER_NAME    = EARTH
REF_FRAME      = TEME
TIME_SYSTEM    = UTC
MEAN_ELEMENT_THEORY = SGP/SGP4

EPOCH          = 2026-03-27T22:06:12.557088
MEAN_MOTION    = 14.75497793
ECCENTRICITY   = .00145238
INCLINATION    = 54.9797
RA_OF_ASC_NODE = 7.2302
ARG_OF_PERICENTER = 311.8804
MEAN_ANOMALY   = 48.0956

EPHEMERIS_TYPE = 0
CLASSIFICATION_TYPE = U
NORAD_CAT_ID   = 68359
ELEMENT_SET_NO = 999
REV_AT_EPOCH   = 78
BSTAR          = .36584733E-4
MEAN_MOTION_DOT = .4E-6
MEAN_MOTION_DDOT = 0

CCSDS_OMM_VERS = 2.0
CREATION_DATE  = 
ORIGINATOR     = 

OBJECT_NAME    = SUPERVIEW NEO-2 OBJECT A
OBJECT_ID      = 2026-062A
CENTER_NAME    = EARTH
REF_FRAME      = TEME
TIME_SYSTEM    = UTC
MEAN_ELEMENT_THEORY = SGP/SGP4

EPOCH          = 2026-03-28T02:27:44.406720
MEAN_MOTION    = 15.20117201
ECCENTRICITY   = .00081688
INCLINATION    = 97.4379
RA_OF_ASC_NODE = 95.5549
ARG_OF_PERICENTER = 263.6047
MEAN_ANOMALY   = 96.4258

EPHEMERIS_TYPE = 0
CLASSIFICATION_TYPE = U
NORAD_CAT_ID   = 68377
ELEMENT_SET_NO = 999
REV_AT_EPOCH   = 33
BSTAR          = .72014081E-4
MEAN_MOTION_DOT = .1488E-4
MEAN_MOTION_DDOT = 0

CCSDS_OMM_VERS = 2.0
CREATION_DATE  = 
ORIGINATOR     = 

OBJECT_NAME    = SUPERVIEW NEO-2 OBJECT B
OBJECT_ID      = 2026-062B
CENTER_NAME    = EARTH
REF_FRAME      = TEME
TIME_SYSTEM    = UTC
MEAN_ELEMENT_THEORY = SGP/SGP4

EPOCH          = 2026-03-27T01:10:54.793056
MEAN_MOTION    = 15.20012563
ECCENTRICITY   = .00103961
INCLINATION    = 97.4356
RA_OF_ASC_NODE = 94.5245
ARG_OF_PERICENTER = 272.3840
MEAN_ANOMALY   = 87.6205

EPHEMERIS_TYPE = 0
CLASSIFICATION_TYPE = U
NORAD_CAT_ID   = 68378
ELEMENT_SET_NO = 999
REV_AT_EPOCH   = 17
BSTAR          = .14872926E-3
MEAN_MOTION_DOT = .3139E-4
MEAN_MOTION_DDOT = 0

CCSDS_OMM_VERS = 2.0
CREATION_DATE  = 
ORIGINATOR     = 

OBJECT_NAME    = CZ-2D R/B
OBJECT_ID      = 2026-062C
CENTER_NAME    = EARTH
REF_FRAME      = TEME
TIME_SYSTEM    = UTC
MEAN_ELEMENT_THEORY = SGP/SGP4

EPOCH          = 2026-03-28T14:38:41.675712
MEAN_MOTION    = 15.31012890
ECCENTRICITY   = .0053658
INCLINATION    = 97.4990
RA_OF_ASC_NODE = 95.9174
ARG_OF_PERICENTER = 52.3584
MEAN_ANOMALY   = 308.2508

EPHEMERIS_TYPE = 0
CLASSIFICATION_TYPE = U
NORAD_CAT_ID   = 68379
ELEMENT_SET_NO = 999
REV_AT_EPOCH   = 41
BSTAR          = .23729144E-3
MEAN_MOTION_DOT = .735E-4
MEAN_MOTION_DDOT = 0

CCSDS_OMM_VERS = 2.0
CREATION_DATE  = 
ORIGINATOR     = 

OBJECT_NAME    = 2026-064A
OBJECT_ID      = 2026-064A
CENTER_NAME    = EARTH
REF_FRAME      = TEME
TIME_SYSTEM    = UTC
MEAN_ELEMENT_THEORY = SGP/SGP4

EPOCH          = 2026-03-28T17:30:21.266784
MEAN_MOTION    = 15.23574602
ECCENTRICITY   = .0014898
INCLINATION    = 97.4665
RA_OF_ASC_NODE = 163.6715
ARG_OF_PERICENTER = 226.1610
MEAN_ANOMALY   = 133.8396

EPHEMERIS_TYPE = 0
CLASSIFICATION_TYPE = U
NORAD_CAT_ID   = 68405
ELEMENT_SET_NO = 999
REV_AT_EPOCH   = 24
BSTAR          = .26576E-3
MEAN_MOTION_DOT = .6303E-4
MEAN_MOTION_DDOT = 0

